{
  "type": "FeatureCollection",
  "features": [
    {
      "type": "Feature",
      "properties": {
        "norad_id": 31185,
        "name": "FENGYUN 1C DEB",
        "group": "fengyun-1c-debris",
        "lat": -4.995966364506337,
        "lon": 154.74517444331778,
        "alt_km": 870.272969835547,
        "timestamp": "2025-12-04T19:33:59.883478+00:00",
        "meta_object_name": "FENGYUN 1C DEB",
        "meta_object_id": "1999-025BJP",
        "meta_epoch": "2025-12-03T06:44:56.905152",
        "meta_mean_motion": 14.03019915,
        "meta_eccentricity": 0.0041359,
        "meta_inclination": 98.8321,
        "meta_ra_of_asc_node": 334.0356,
        "meta_arg_of_pericenter": 132.5488,
        "meta_mean_anomaly": 227.9182,
        "meta_ephemeris_type": 0,
        "meta_classification_type": "U",
        "meta_norad_cat_id": 31185,
        "meta_element_set_no": 999,
        "meta_rev_at_epoch": 62204,
        "meta_bstar": 0.0004459,
        "meta_mean_motion_dot": 6.55e-06,
        "meta_mean_motion_ddot": 0,
        "tle_line1": "1 31185U 99025BJP 25337.28121418  .00000655  00000+0  44590-3 0  9990",
        "tle_line2": "2 31185  98.8321 334.0356 0041359 132.5488 227.9182 14.03019915622046"
      },
      "geometry": {
        "type": "Point",
        "coordinates": [
          154.74517444331778,
          -4.995966364506337
        ]
      }
    },
    {
      "type": "Feature",
      "properties": {
        "norad_id": 31186,
        "name": "FENGYUN 1C DEB",
        "group": "fengyun-1c-debris",
        "lat": 80.15850555257927,
        "lon": -174.75421322889622,
        "alt_km": 822.9237958636586,
        "timestamp": "2025-12-04T19:33:59.883486+00:00",
        "meta_object_name": "FENGYUN 1C DEB",
        "meta_object_id": "1999-025BJQ",
        "meta_epoch": "2025-12-02T00:56:26.242368",
        "meta_mean_motion": 14.1287731,
        "meta_eccentricity": 0.00265333,
        "meta_inclination": 99.1774,
        "meta_ra_of_asc_node": 251.1349,
        "meta_arg_of_pericenter": 91.9141,
        "meta_mean_anomaly": 282.1326,
        "meta_ephemeris_type": 0,
        "meta_classification_type": "U",
        "meta_norad_cat_id": 31186,
        "meta_element_set_no": 999,
        "meta_rev_at_epoch": 95954,
        "meta_bstar": 0.0005366123,
        "meta_mean_motion_dot": 9.55e-06,
        "meta_mean_motion_ddot": 0,
        "tle_line1": "1 31186U 99025BJQ 25336.03919262  .00000955  00000+0  53661-3 0  9997",
        "tle_line2": "2 31186  99.1774 251.1349 0026533  91.9141 282.1326 14.12877310959547"
      },
      "geometry": {
        "type": "Point",
        "coordinates": [
          -174.75421322889622,
          80.15850555257927
        ]
      }
    },
    {
      "type": "Feature",
      "properties": {
        "norad_id": 31187,
        "name": "FENGYUN 1C DEB",
        "group": "fengyun-1c-debris",
        "lat": 76.56504238671933,
        "lon": 64.34308259742004,
        "alt_km": 822.6888465122311,
        "timestamp": "2025-12-04T19:33:59.883495+00:00",
        "meta_object_name": "FENGYUN 1C DEB",
        "meta_object_id": "1999-025BJR",
        "meta_epoch": "2025-12-01T13:43:08.097600",
        "meta_mean_motion": 14.58611651,
        "meta_eccentricity": 0.02227782,
        "meta_inclination": 99.2439,
        "meta_ra_of_asc_node": 197.7529,
        "meta_arg_of_pericenter": 257.7372,
        "meta_mean_anomaly": 99.88,
        "meta_ephemeris_type": 0,
        "meta_classification_type": "U",
        "meta_norad_cat_id": 31187,
        "meta_element_set_no": 999,
        "meta_rev_at_epoch": 68937,
        "meta_bstar": 0.003493453,
        "meta_mean_motion_dot": 0.00022975,
        "meta_mean_motion_ddot": 0,
        "tle_line1": "1 31187U 99025BJR 25335.57162150  .00022975  00000+0  34935-2 0  9990",
        "tle_line2": "2 31187  99.2439 197.7529 0222778 257.7372  99.8800 14.58611651689374"
      },
      "geometry": {
        "type": "Point",
        "coordinates": [
          64.34308259742004,
          76.56504238671933
        ]
      }
    },
    {
      "type": "Feature",
      "properties": {
        "norad_id": 31188,
        "name": "FENGYUN 1C DEB",
        "group": "fengyun-1c-debris",
        "lat": -1.6220657180866227,
        "lon": -133.6068321758435,
        "alt_km": 816.3122874017681,
        "timestamp": "2025-12-04T19:33:59.883504+00:00",
        "meta_object_name": "FENGYUN 1C DEB",
        "meta_object_id": "1999-025BJS",
        "meta_epoch": "2025-12-03T22:42:56.325600",
        "meta_mean_motion": 14.23729706,
        "meta_eccentricity": 0.00594729,
        "meta_inclination": 98.7496,
        "meta_ra_of_asc_node": 45.7789,
        "meta_arg_of_pericenter": 274.9888,
        "meta_mean_anomaly": 136.787,
        "meta_ephemeris_type": 0,
        "meta_classification_type": "U",
        "meta_norad_cat_id": 31188,
        "meta_element_set_no": 999,
        "meta_rev_at_epoch": 96211,
        "meta_bstar": 0.0028543783,
        "meta_mean_motion_dot": 6.6e-05,
        "meta_mean_motion_ddot": 0,
        "tle_line1": "1 31188U 99025BJS 25337.94648525  .00006600  00000+0  28544-2 0  9995",
        "tle_line2": "2 31188  98.7496  45.7789 0059472 274.9888 136.7870 14.23729706962111"
      },
      "geometry": {
        "type": "Point",
        "coordinates": [
          -133.6068321758435,
          -1.6220657180866227
        ]
      }
    },
    {
      "type": "Feature",
      "properties": {
        "norad_id": 31190,
        "name": "FENGYUN 1C DEB",
        "group": "fengyun-1c-debris",
        "lat": -15.251923758861029,
        "lon": 169.3545558662185,
        "alt_km": 882.8996099426604,
        "timestamp": "2025-12-04T19:33:59.883513+00:00",
        "meta_object_name": "FENGYUN 1C DEB",
        "meta_object_id": "1999-025BJU",
        "meta_epoch": "2025-12-03T11:50:09.463776",
        "meta_mean_motion": 14.0356409,
        "meta_eccentricity": 0.00673436,
        "meta_inclination": 98.8192,
        "meta_ra_of_asc_node": 350.4986,
        "meta_arg_of_pericenter": 285.6327,
        "meta_mean_anomaly": 73.7416,
        "meta_ephemeris_type": 0,
        "meta_classification_type": "U",
        "meta_norad_cat_id": 31190,
        "meta_element_set_no": 999,
        "meta_rev_at_epoch": 95417,
        "meta_bstar": 0.00091096986,
        "meta_mean_motion_dot": 1.415e-05,
        "meta_mean_motion_ddot": 0,
        "tle_line1": "1 31190U 99025BJU 25337.49316509  .00001415  00000+0  91097-3 0  9995",
        "tle_line2": "2 31190  98.8192 350.4986 0067343 285.6327  73.7416 14.03564090954170"
      },
      "geometry": {
        "type": "Point",
        "coordinates": [
          169.3545558662185,
          -15.251923758861029
        ]
      }
    },
    {
      "type": "Feature",
      "properties": {
        "norad_id": 31191,
        "name": "FENGYUN 1C DEB",
        "group": "fengyun-1c-debris",
        "lat": 80.90023808833423,
        "lon": 164.6551229769713,
        "alt_km": 790.9177597941998,
        "timestamp": "2025-12-04T19:33:59.883521+00:00",
        "meta_object_name": "FENGYUN 1C DEB",
        "meta_object_id": "1999-025BJV",
        "meta_epoch": "2025-12-04T05:49:14.405376",
        "meta_mean_motion": 14.40760962,
        "meta_eccentricity": 0.00919607,
        "meta_inclination": 98.7824,
        "meta_ra_of_asc_node": 238.9048,
        "meta_arg_of_pericenter": 219.9829,
        "meta_mean_anomaly": 139.4564,
        "meta_ephemeris_type": 0,
        "meta_classification_type": "U",
        "meta_norad_cat_id": 31191,
        "meta_element_set_no": 999,
        "meta_rev_at_epoch": 97890,
        "meta_bstar": 0.00072225331,
        "meta_mean_motion_dot": 2.38e-05,
        "meta_mean_motion_ddot": 0,
        "tle_line1": "1 31191U 99025BJV 25338.24252784  .00002380  00000+0  72225-3 0  9998",
        "tle_line2": "2 31191  98.7824 238.9048 0091960 219.9829 139.4564 14.40760962978908"
      },
      "geometry": {
        "type": "Point",
        "coordinates": [
          164.6551229769713,
          80.90023808833423
        ]
      }
    },
    {
      "type": "Feature",
      "properties": {
        "norad_id": 31192,
        "name": "FENGYUN 1C DEB",
        "group": "fengyun-1c-debris",
        "lat": -18.138827003521776,
        "lon": 139.92204273658078,
        "alt_km": 763.8614251620957,
        "timestamp": "2025-12-04T19:33:59.883530+00:00",
        "meta_object_name": "FENGYUN 1C DEB",
        "meta_object_id": "1999-025BJW",
        "meta_epoch": "2025-12-02T05:49:13.594080",
        "meta_mean_motion": 14.20933946,
        "meta_eccentricity": 0.0259415,
        "meta_inclination": 98.5525,
        "meta_ra_of_asc_node": 320.2543,
        "meta_arg_of_pericenter": 134.0886,
        "meta_mean_anomaly": 228.1965,
        "meta_ephemeris_type": 0,
        "meta_classification_type": "U",
        "meta_norad_cat_id": 31192,
        "meta_element_set_no": 999,
        "meta_rev_at_epoch": 96594,
        "meta_bstar": 0.00031822,
        "meta_mean_motion_dot": 9.23e-06,
        "meta_mean_motion_ddot": 0,
        "tle_line1": "1 31192U 99025BJW 25336.24251845  .00000923  00000+0  31822-3 0  9993",
        "tle_line2": "2 31192  98.5525 320.2543 0259415 134.0886 228.1965 14.20933946965944"
      },
      "geometry": {
        "type": "Point",
        "coordinates": [
          139.92204273658078,
          -18.138827003521776
        ]
      }
    }
  ]
}